[
  {
    "id": "feat-5",
    "noradId": 5,
    "category": "featured",
    "name": "VANGUARD 1",
    "line1": "1 00005U 58002B   26176.65379840  .00000341  00000+0  43141-3 0  9997",
    "line2": "2 00005  34.2462 288.1984 1835813 176.6926 184.7896 10.86005013444205"
  },
  {
    "id": "feat-11",
    "noradId": 11,
    "category": "featured",
    "name": "VANGUARD 2",
    "line1": "1 00011U 59001A   26177.03417441  .00001396  00000+0  73888-3 0  9999",
    "line2": "2 00011  32.8671  51.6640 1444751 107.2720 269.0703 11.90533224536526"
  },
  {
    "id": "feat-29",
    "noradId": 29,
    "category": "featured",
    "name": "TIROS 1",
    "line1": "1 00029U 60002B   26177.18722754  .00000450  00000+0  89228-4 0  9999",
    "line2": "2 00029  48.3796 341.8747 0022519 306.6901  53.1943 14.78785260543463"
  },
  {
    "id": "feat-634",
    "noradId": 634,
    "category": "featured",
    "name": "SYNCOM 2 (A 26)",
    "line1": "1 00634U 63031A   26173.90030891 -.00000035  00000+0  00000+0 0  9992",
    "line2": "2 00634  29.9712 300.3677 0007055 200.4960 160.8805  1.00262480230421"
  },
  {
    "id": "feat-858",
    "noradId": 858,
    "category": "featured",
    "name": "SYNCOM 3",
    "line1": "1 00858U 64047A   26175.86840883 -.00000201  00000+0  00000+0 0  9990",
    "line2": "2 00858   6.9847  64.4157 0003125 156.1878  88.9582  1.00399641 53541"
  },
  {
    "id": "feat-1317",
    "noradId": 1317,
    "category": "featured",
    "name": "INTELSAT 1-F1",
    "line1": "1 01317U 65028A   26177.25094253  .00000056  00000+0  00000+0 0  9995",
    "line2": "2 01317   7.1778  63.6381 0006376 142.9251  31.2857  1.00187924127263"
  },
  {
    "id": "feat-2608",
    "noradId": 2608,
    "category": "featured",
    "name": "ATS 1",
    "line1": "1 02608U 66110A   26176.91155104 -.00000176  00000+0  00000+0 0  9991",
    "line2": "2 02608   4.9940  69.8202 0006090 187.3674 136.7472  1.00298388134885"
  },
  {
    "id": "feat-3029",
    "noradId": 3029,
    "category": "featured",
    "name": "ATS 3",
    "line1": "1 03029U 67111A   26177.24942469 -.00000080  00000+0  00000+0 0  9990",
    "line2": "2 03029   3.2005  78.2805 0015742  34.4402 146.2460  1.00272003214726"
  },
  {
    "id": "feat-4250",
    "noradId": 4250,
    "category": "featured",
    "name": "SKYNET 1A",
    "line1": "1 04250U 69101A   26177.25582497 -.00000087  00000+0  00000+0 0  9997",
    "line2": "2 04250   0.4632  80.3253 0024531 160.5368  22.0677  1.00269151134606"
  },
  {
    "id": "feat-22675",
    "noradId": 22675,
    "category": "featured",
    "name": "COSMOS 2251",
    "line1": "1 22675U 93036A   26176.83665841  .00000057  00000+0  29987-4 0  9996",
    "line2": "2 22675  74.0403 319.4047 0024938 354.2662   5.8200 14.33257487725681"
  },
  {
    "id": "feat-27386",
    "noradId": 27386,
    "category": "featured",
    "name": "ENVISAT",
    "line1": "1 27386U 02009A   26177.30083383  .00000073  00000+0  37354-4 0  9993",
    "line2": "2 27386  98.3838 128.4162 0001411  87.5719  39.8745 14.39066774274797"
  },
  {
    "id": "feat-4353",
    "noradId": 4353,
    "category": "featured",
    "name": "NATO 2A",
    "line1": "1 04353U 70021A   26177.25540175 -.00000085  00000+0  00000+0 0  9999",
    "line2": "2 04353   0.4248 312.9346 0002135 268.0597  41.1192  1.00281174125854"
  },
  {
    "id": "rb-733",
    "noradId": 733,
    "category": "rocketBody",
    "name": "THOR AGENA D R/B",
    "line1": "1 00733U 64002A   26177.29691858  .00000177  00000+0  80602-4 0  9990",
    "line2": "2 00733  99.1152 196.5203 0031924 303.4325  56.3806 14.34068890253862"
  },
  {
    "id": "rb-877",
    "noradId": 877,
    "category": "rocketBody",
    "name": "SL-3 R/B",
    "line1": "1 00877U 64053B   26176.95224824  .00000118  00000+0  47140-4 0  9997",
    "line2": "2 00877  65.0776  13.8121 0080811 258.3389 100.8634 14.61430297282615"
  },
  {
    "id": "rb-2802",
    "noradId": 2802,
    "category": "rocketBody",
    "name": "SL-8 R/B",
    "line1": "1 02802U 67045B   26177.28941948  .00000218  00000+0  67921-4 0  9991",
    "line2": "2 02802  74.0102 145.2583 0063151 127.2032 233.4914 14.45685963104719"
  },
  {
    "id": "rb-3230",
    "noradId": 3230,
    "category": "rocketBody",
    "name": "SL-8 R/B",
    "line1": "1 03230U 68040B   26177.23037196  .00002959  00000+0  21651-3 0  9992",
    "line2": "2 03230  74.0309  91.7962 0025812 243.4585 116.3958 15.03856747106327"
  },
  {
    "id": "rb-5118",
    "noradId": 5118,
    "category": "rocketBody",
    "name": "SL-3 R/B",
    "line1": "1 05118U 71028B   26177.29616795  .00053776  00000+0  43256-3 0  9991",
    "line2": "2 05118  81.2331 276.9366 0014224 247.6941 112.2810 15.70592279  5670"
  },
  {
    "id": "rb-5730",
    "noradId": 5730,
    "category": "rocketBody",
    "name": "SL-8 R/B",
    "line1": "1 05730U 71119B   26176.91268413  .00004191  00000+0  21573-3 0  9995",
    "line2": "2 05730  73.8879 333.1047 0543617 277.3183  76.6523 14.39558266671054"
  },
  {
    "id": "rb-6155",
    "noradId": 6155,
    "category": "rocketBody",
    "name": "ATLAS CENTAUR R/B",
    "line1": "1 06155U 72065B   26177.26262431  .00000964  00000+0  13359-3 0  9998",
    "line2": "2 06155  35.0029  29.3365 0033816 205.6754 154.2267 14.77936974857336"
  },
  {
    "id": "rb-8459",
    "noradId": 8459,
    "category": "rocketBody",
    "name": "SL-8 R/B",
    "line1": "1 08459U 75112B   26177.29185413  .00000257  00000+0  93085-4 0  9990",
    "line2": "2 08459  74.0590 179.1239 0016759 244.9474 114.9941 14.38251070647486"
  },
  {
    "id": "rb-10114",
    "noradId": 10114,
    "category": "rocketBody",
    "name": "SL-3 R/B",
    "line1": "1 10114U 77057B   26177.26708291  .00011320  00000+0  21789-3 0  9997",
    "line2": "2 10114  97.5841 354.2487 0005671 243.4538 116.6131 15.48058204685111"
  },
  {
    "id": "rb-11267",
    "noradId": 11267,
    "category": "rocketBody",
    "name": "SL-14 R/B",
    "line1": "1 11267U 79011B   26177.22932848  .00000504  00000+0  47074-4 0  9990",
    "line2": "2 11267  82.5238 353.5718 0017292  57.9916 302.2981 14.92021994544961"
  },
  {
    "id": "rb-11574",
    "noradId": 11574,
    "category": "rocketBody",
    "name": "SL-8 R/B",
    "line1": "1 11574U 79089B   26177.29069090  .00000195  00000+0  66762-4 0  9994",
    "line2": "2 11574  74.0685 250.0056 0015261  30.4403 329.7637 14.42407829451768"
  },
  {
    "id": "rb-11672",
    "noradId": 11672,
    "category": "rocketBody",
    "name": "SL-14 R/B",
    "line1": "1 11672U 80005B   26177.31386459  .00000459  00000+0  43751-4 0  9993",
    "line2": "2 11672  82.5133 204.1828 0016322 155.8963 204.3024 14.91035323492671"
  },
  {
    "id": "rb-12139",
    "noradId": 12139,
    "category": "rocketBody",
    "name": "SL-8 R/B",
    "line1": "1 12139U 81003B   26177.27118606  .00017582  00000+0  42522-3 0  9992",
    "line2": "2 12139  82.9362 189.3301 0250573 159.4161 201.7394 15.14496098331091"
  },
  {
    "id": "rb-12465",
    "noradId": 12465,
    "category": "rocketBody",
    "name": "SL-3 R/B",
    "line1": "1 12465U 81046B   26177.26078015  .00012207  00000+0  26220-3 0  9995",
    "line2": "2 12465  81.2292 159.1370 0017542   6.9803 353.1681 15.44380762455174"
  },
  {
    "id": "rb-12904",
    "noradId": 12904,
    "category": "rocketBody",
    "name": "SL-3 R/B",
    "line1": "1 12904U 81103B   26177.25614986  .00004171  00000+0  17945-3 0  9994",
    "line2": "2 12904  81.1589  85.9788 0011459 282.2601  77.7348 15.22354078989746"
  },
  {
    "id": "rb-13068",
    "noradId": 13068,
    "category": "rocketBody",
    "name": "SL-3 R/B",
    "line1": "1 13068U 82013B   26177.15910569  .00003967  00000+0  16732-3 0  9997",
    "line2": "2 13068  81.1738  33.5263 0022063 170.3543 189.8118 15.22838700420857"
  },
  {
    "id": "rb-13154",
    "noradId": 13154,
    "category": "rocketBody",
    "name": "SL-3 R/B",
    "line1": "1 13154U 82039B   26177.24229519  .00003604  00000+0  21495-3 0  9999",
    "line2": "2 13154  81.1473  90.6238 0027839 325.2369  34.7036 15.10593257398020"
  },
  {
    "id": "rb-13403",
    "noradId": 13403,
    "category": "rocketBody",
    "name": "SL-3 R/B",
    "line1": "1 13403U 82079B   26177.23176230  .00005407  00000+0  20842-3 0  9998",
    "line2": "2 13403  81.1464  64.7890 0024411 155.1750 205.0665 15.25858254394248"
  },
  {
    "id": "rb-13553",
    "noradId": 13553,
    "category": "rocketBody",
    "name": "SL-14 R/B",
    "line1": "1 13553U 82092B   26177.15465692  .00000364  00000+0  38090-4 0  9995",
    "line2": "2 13553  82.5676  39.9118 0018988 303.9448 206.2058 14.86753339345047"
  },
  {
    "id": "rb-13819",
    "noradId": 13819,
    "category": "rocketBody",
    "name": "SL-3 R/B",
    "line1": "1 13819U 83010B   26177.23003925  .00014749  00000+0  26636-3 0  9991",
    "line2": "2 13819  81.1010 228.8261 0014933  31.7916 328.4229 15.49460537374739"
  },
  {
    "id": "sat-10967",
    "noradId": 10967,
    "category": "inactiveSatellite",
    "name": "SEASAT 1",
    "line1": "1 10967U 78064A   26177.30059455  .00000220  00000+0  99882-4 0  9995",
    "line2": "2 10967 108.0178 353.4197 0001548 240.8334 119.2657 14.46249137522218"
  },
  {
    "id": "sat-21574",
    "noradId": 21574,
    "category": "inactiveSatellite",
    "name": "ERS-1",
    "line1": "1 21574U 91050A   26177.06177259  .00000266  00000+0  99840-4 0  9991",
    "line2": "2 21574  98.7795 197.9767 0030841 239.6462 120.1674 14.39521981831321"
  },
  {
    "id": "sat-24883",
    "noradId": 24883,
    "category": "inactiveSatellite",
    "name": "ORBVIEW 2 (SEASTAR)",
    "line1": "1 24883U 97037A   26177.22025964  .00000250  00000+0  10297-3 0  9992",
    "line2": "2 24883  98.8694 344.4899 0003328  98.3377 261.8185 14.35557691524047"
  }
]